start=new Date('2023-01-11T00:00:00.000Z').valueOf();
sats=[{"GP_ID":"222662324","PERIOD":"95.592","FILE":"3739038","PERIAPSIS":"546.493","ELEMENT_SET_NO":"999","OBJECT_TYPE":"PAYLOAD","TIME_SYSTEM":"UTC","TLE_LINE1":"1 47560U 21009N   23010.50050062  .00002552  00000-0  19008-3 0  9993","ARG_OF_PERICENTER":"86.7824","CLASSIFICATION_TYPE":"U","COUNTRY_CODE":"US","LAUNCH_DATE":"2021-02-04","OBJECT_ID":"2021-009N","SEMIMAJOR_AXIS":"6925.318","APOAPSIS":"547.873","OBJECT_NAME":"STARLINK-1959","MEAN_MOTION":"15.06409932","EPHEMERIS_TYPE":"0","MEAN_MOTION_DOT":"0.00002552","SITE":"AFETR","MEAN_ELEMENT_THEORY":"SGP4","NORAD_CAT_ID":"47560","REV_AT_EPOCH":"10711","MEAN_ANOMALY":"273.3279","RCS_SIZE":"LARGE","EPOCH":"2023-01-10T12:00:43.253568","REF_FRAME":"TEME","TLE_LINE2":"2 47560  53.0549 142.9583 0000996  86.7824 273.3279 15.06409932107113","DECAY_DATE":null,"BSTAR":"0.00019008000000","CENTER_NAME":"EARTH","MEAN_MOTION_DDOT":"0.0000000000000","INCLINATION":"53.0549","ECCENTRICITY":"0.00009960","RA_OF_ASC_NODE":"142.9583"},{"GP_ID":"222720064","PERIOD":"95.592","FILE":"3739267","PERIAPSIS":"546.270","ELEMENT_SET_NO":"999","OBJECT_TYPE":"PAYLOAD","TIME_SYSTEM":"UTC","ARG_OF_PERICENTER":"92.0140","TLE_LINE1":"1 47561U 21009P   23010.75391674 -.00003375  00000-0 -20776-3 0  9998","LAUNCH_DATE":"2021-02-04","COUNTRY_CODE":"US","CLASSIFICATION_TYPE":"U","OBJECT_NAME":"STARLINK-1960","APOAPSIS":"548.144","OBJECT_ID":"2021-009P","SEMIMAJOR_AXIS":"6925.342","MEAN_MOTION":"15.06402048","SITE":"AFETR","MEAN_MOTION_DOT":"-0.00003375","EPHEMERIS_TYPE":"0","NORAD_CAT_ID":"47561","MEAN_ELEMENT_THEORY":"SGP4","REV_AT_EPOCH":"10687","EPOCH":"2023-01-10T18:05:38.406336","RCS_SIZE":"LARGE","MEAN_ANOMALY":"268.1004","REF_FRAME":"TEME","TLE_LINE2":"2 47561  53.0538 161.8384 0001353  92.0140 268.1004 15.06402048106871","DECAY_DATE":null,"BSTAR":"-0.00020776000000","MEAN_MOTION_DDOT":"0.0000000000000","CENTER_NAME":"EARTH","ECCENTRICITY":"0.00013530","INCLINATION":"53.0538","RA_OF_ASC_NODE":"161.8384"},{"OBJECT_NAME":"STARLINK-1961","APOAPSIS":"548.128","OBJECT_ID":"2021-009Q","SEMIMAJOR_AXIS":"6925.356","ARG_OF_PERICENTER":"100.7667","TLE_LINE1":"1 47562U 21009Q   23010.83500587 -.00000909  00000-0 -42149-4 0  9992","LAUNCH_DATE":"2021-02-04","COUNTRY_CODE":"US","CLASSIFICATION_TYPE":"U","OBJECT_TYPE":"PAYLOAD","ELEMENT_SET_NO":"999","TIME_SYSTEM":"UTC","GP_ID":"222720310","PERIOD":"95.592","FILE":"3739267","PERIAPSIS":"546.314","MEAN_MOTION_DDOT":"0.0000000000000","CENTER_NAME":"EARTH","ECCENTRICITY":"0.00013100","INCLINATION":"53.0538","RA_OF_ASC_NODE":"161.4807","DECAY_DATE":null,"BSTAR":"-0.00004214900000","EPOCH":"2023-01-10T20:02:24.507168","RCS_SIZE":"LARGE","MEAN_ANOMALY":"259.3470","TLE_LINE2":"2 47562  53.0538 161.4807 0001310 100.7667 259.3470 15.06397514106883","REF_FRAME":"TEME","MEAN_MOTION":"15.06397514","SITE":"AFETR","EPHEMERIS_TYPE":"0","MEAN_MOTION_DOT":"-0.00000909","NORAD_CAT_ID":"47562","MEAN_ELEMENT_THEORY":"SGP4","REV_AT_EPOCH":"10688"},{"CLASSIFICATION_TYPE":"U","COUNTRY_CODE":"US","LAUNCH_DATE":"2021-02-04","TLE_LINE1":"1 47563U 21009R   23010.79076743 -.00007576  00000-0 -48986-3 0  9991","ARG_OF_PERICENTER":"99.6699","SEMIMAJOR_AXIS":"6925.266","OBJECT_ID":"2021-009R","APOAPSIS":"548.381","OBJECT_NAME":"STARLINK-1962","PERIAPSIS":"545.880","FILE":"3739267","GP_ID":"222719564","PERIOD":"95.590","TIME_SYSTEM":"UTC","OBJECT_TYPE":"PAYLOAD","ELEMENT_SET_NO":"999","DECAY_DATE":null,"BSTAR":"-0.00048986000000","INCLINATION":"53.0514","ECCENTRICITY":"0.00018060","RA_OF_ASC_NODE":"161.6820","CENTER_NAME":"EARTH","MEAN_MOTION_DDOT":"0.0000000000000","NORAD_CAT_ID":"47563","MEAN_ELEMENT_THEORY":"SGP4","REV_AT_EPOCH":"10687","MEAN_MOTION":"15.06427043","MEAN_MOTION_DOT":"-0.00007576","EPHEMERIS_TYPE":"0","SITE":"AFETR","MEAN_ANOMALY":"260.4494","EPOCH":"2023-01-10T18:58:42.305952","RCS_SIZE":"LARGE","TLE_LINE2":"2 47563  53.0514 161.6820 0001806  99.6699 260.4494 15.06427043106875","REF_FRAME":"TEME"},{"SEMIMAJOR_AXIS":"6925.346","OBJECT_ID":"2021-009S","OBJECT_NAME":"STARLINK-1963","APOAPSIS":"548.238","TLE_LINE1":"1 47564U 21009S   23010.65900026  .00000166  00000-0  30053-4 0  9990","ARG_OF_PERICENTER":"83.7321","COUNTRY_CODE":"US","CLASSIFICATION_TYPE":"U","LAUNCH_DATE":"2021-02-04","OBJECT_TYPE":"PAYLOAD","ELEMENT_SET_NO":"999","TIME_SYSTEM":"UTC","GP_ID":"222719315","PERIOD":"95.592","PERIAPSIS":"546.184","FILE":"3739267","CENTER_NAME":"EARTH","MEAN_MOTION_DDOT":"0.0000000000000","INCLINATION":"53.0536","ECCENTRICITY":"0.00014830","RA_OF_ASC_NODE":"152.2764","DECAY_DATE":null,"BSTAR":"0.00003005300000","MEAN_ANOMALY":"276.3837","EPOCH":"2023-01-10T15:48:57.622464","RCS_SIZE":"LARGE","TLE_LINE2":"2 47564  53.0536 152.2764 0001483  83.7321 276.3837 15.06400920106995","REF_FRAME":"TEME","MEAN_MOTION":"15.06400920","EPHEMERIS_TYPE":"0","MEAN_MOTION_DOT":"0.00000166","SITE":"AFETR","NORAD_CAT_ID":"47564","MEAN_ELEMENT_THEORY":"SGP4","REV_AT_EPOCH":"10699"},{"REV_AT_EPOCH":"10701","NORAD_CAT_ID":"47565","MEAN_ELEMENT_THEORY":"SGP4","SITE":"AFETR","MEAN_MOTION_DOT":"-0.00000090","EPHEMERIS_TYPE":"0","MEAN_MOTION":"15.06397929","TLE_LINE2":"2 47565  53.0543 151.6880 0001431  85.6450 274.4702 15.06397929107011","REF_FRAME":"TEME","EPOCH":"2023-01-10T18:54:43.912800","RCS_SIZE":"LARGE","MEAN_ANOMALY":"274.4702","BSTAR":"0.00001284200000","DECAY_DATE":null,"RA_OF_ASC_NODE":"151.6880","ECCENTRICITY":"0.00014310","INCLINATION":"53.0543","MEAN_MOTION_DDOT":"0.0000000000000","CENTER_NAME":"EARTH","FILE":"3739267","PERIAPSIS":"546.229","PERIOD":"95.592","GP_ID":"222720564","TIME_SYSTEM":"UTC","ELEMENT_SET_NO":"999","OBJECT_TYPE":"PAYLOAD","LAUNCH_DATE":"2021-02-04","CLASSIFICATION_TYPE":"U","COUNTRY_CODE":"US","ARG_OF_PERICENTER":"85.6450","TLE_LINE1":"1 47565U 21009T   23010.78800825 -.00000090  00000-0  12842-4 0  9994","APOAPSIS":"548.211","OBJECT_NAME":"STARLINK-1964","OBJECT_ID":"2021-009T","SEMIMAJOR_AXIS":"6925.355"},{"SEMIMAJOR_AXIS":"6925.321","OBJECT_ID":"2021-009U","OBJECT_NAME":"STARLINK-1965","APOAPSIS":"548.031","COUNTRY_CODE":"US","CLASSIFICATION_TYPE":"U","LAUNCH_DATE":"2021-02-04","TLE_LINE1":"1 47566U 21009U   23010.78156797  .00001224  00000-0  10100-3 0  9990","ARG_OF_PERICENTER":"89.7273","TIME_SYSTEM":"UTC","ELEMENT_SET_NO":"999","OBJECT_TYPE":"PAYLOAD","FILE":"3739267","PERIAPSIS":"546.342","PERIOD":"95.592","GP_ID":"222720810","RA_OF_ASC_NODE":"141.7254","INCLINATION":"53.0528","ECCENTRICITY":"0.00012190","CENTER_NAME":"EARTH","MEAN_MOTION_DDOT":"0.0000000000000","BSTAR":"0.00010100000000","DECAY_DATE":null,"TLE_LINE2":"2 47566  53.0528 141.7254 0001219  89.7273 270.3856 15.06408878107158","REF_FRAME":"TEME","MEAN_ANOMALY":"270.3856","EPOCH":"2023-01-10T18:45:27.472608","RCS_SIZE":"LARGE","REV_AT_EPOCH":"10715","NORAD_CAT_ID":"47566","MEAN_ELEMENT_THEORY":"SGP4","MEAN_MOTION_DOT":"0.00001224","EPHEMERIS_TYPE":"0","SITE":"AFETR","MEAN_MOTION":"15.06408878"},{"APOAPSIS":"548.195","OBJECT_NAME":"STARLINK-1966","OBJECT_ID":"2021-009V","SEMIMAJOR_AXIS":"6925.355","ARG_OF_PERICENTER":"115.5367","TLE_LINE1":"1 47567U 21009V   23010.55303359  .00001181  00000-0  98144-4 0  9991","LAUNCH_DATE":"2021-02-04","CLASSIFICATION_TYPE":"U","COUNTRY_CODE":"US","ELEMENT_SET_NO":"999","OBJECT_TYPE":"PAYLOAD","TIME_SYSTEM":"UTC","GP_ID":"222696726","PERIOD":"95.592","PERIAPSIS":"546.246","FILE":"3739190","MEAN_MOTION_DDOT":"0.0000000000000","CENTER_NAME":"EARTH","ECCENTRICITY":"0.00014070","INCLINATION":"53.0540","RA_OF_ASC_NODE":"182.7450","DECAY_DATE":null,"BSTAR":"0.00009814400000","EPOCH":"2023-01-10T13:16:22.102176","RCS_SIZE":"LARGE","MEAN_ANOMALY":"244.5767","REF_FRAME":"TEME","TLE_LINE2":"2 47567  53.0540 182.7450 0001407 115.5367 244.5767 15.06397758107155","MEAN_MOTION":"15.06397758","SITE":"AFETR","MEAN_MOTION_DOT":"0.00001181","EPHEMERIS_TYPE":"0","MEAN_ELEMENT_THEORY":"SGP4","NORAD_CAT_ID":"47567","REV_AT_EPOCH":"10715"},{"LAUNCH_DATE":"2021-02-04","CLASSIFICATION_TYPE":"U","COUNTRY_CODE":"US","ARG_OF_PERICENTER":"67.5448","TLE_LINE1":"1 47568U 21009W   23010.57884553  .00000621  00000-0  60546-4 0  9997","OBJECT_NAME":"STARLINK-1967","APOAPSIS":"548.074","OBJECT_ID":"2021-009W","SEMIMAJOR_AXIS":"6925.349","FILE":"3739267","PERIAPSIS":"546.354","PERIOD":"95.592","GP_ID":"222719815","TIME_SYSTEM":"UTC","OBJECT_TYPE":"PAYLOAD","ELEMENT_SET_NO":"999","BSTAR":"0.00006054600000","DECAY_DATE":null,"RA_OF_ASC_NODE":"182.6329","ECCENTRICITY":"0.00012420","INCLINATION":"53.0528","MEAN_MOTION_DDOT":"0.0000000000000","CENTER_NAME":"EARTH","REV_AT_EPOCH":"10656","NORAD_CAT_ID":"47568","MEAN_ELEMENT_THEORY":"SGP4","SITE":"AFETR","EPHEMERIS_TYPE":"0","MEAN_MOTION_DOT":"0.00000621","MEAN_MOTION":"15.06399842","TLE_LINE2":"2 47568  53.0528 182.6329 0001242  67.5448 292.5672 15.06399842106567","REF_FRAME":"TEME","EPOCH":"2023-01-10T13:53:32.253792","RCS_SIZE":"LARGE","MEAN_ANOMALY":"292.5672"},{"INCLINATION":"53.0531","ECCENTRICITY":"0.00014290","RA_OF_ASC_NODE":"141.7649","CENTER_NAME":"EARTH","MEAN_MOTION_DDOT":"0.0000000000000","DECAY_DATE":null,"BSTAR":"0.00008718400000","MEAN_ANOMALY":"271.3968","RCS_SIZE":"LARGE","EPOCH":"2023-01-10T18:29:30.430176","TLE_LINE2":"2 47570  53.0531 141.7649 0001429  88.7185 271.3968 15.06405323107156","REF_FRAME":"TEME","NORAD_CAT_ID":"47570","MEAN_ELEMENT_THEORY":"SGP4","REV_AT_EPOCH":"10715","MEAN_MOTION":"15.06405323","MEAN_MOTION_DOT":"0.00001018","EPHEMERIS_TYPE":"0","SITE":"AFETR","OBJECT_ID":"2021-009Y","SEMIMAJOR_AXIS":"6925.332","OBJECT_NAME":"STARLINK-1969","APOAPSIS":"548.187","CLASSIFICATION_TYPE":"U","COUNTRY_CODE":"US","LAUNCH_DATE":"2021-02-04","TLE_LINE1":"1 47570U 21009Y   23010.77049109  .00001018  00000-0  87184-4 0  9990","ARG_OF_PERICENTER":"88.7185","TIME_SYSTEM":"UTC","ELEMENT_SET_NO":"999","OBJECT_TYPE":"PAYLOAD","PERIAPSIS":"546.208","FILE":"3739267","GP_ID":"222720065","PERIOD":"95.592"}];
